{"type": "FeatureCollection", "features": [ {"type": "Feature", "properties": {"norad_id": 65304, "name": "DRAGON CRS-33", "group": "stations", "lat": 24.412066165631664, "lon": -127.68758534791274, "alt_km": 416.28978684739104, "timestamp": "2025-12-26T16:33:54.365100+00:00", "meta": {"OBJECT_NAME": "DRAGON CRS-33", "OBJECT_ID": "2025-186A", "EPOCH": "2025-12-26T05:05:45.767328", "MEAN_MOTION": 15.49833819, "ECCENTRICITY": 0.00032367, "INCLINATION": 51.6319, "RA_OF_ASC_NODE": 75.7553, "ARG_OF_PERICENTER": 303.1667, "MEAN_ANOMALY": 56.9011, "EPHEMERIS_TYPE": 0, "CLASSIFICATION_TYPE": "U", "NORAD_CAT_ID": 65304, "ELEMENT_SET_NO": 999, "REV_AT_EPOCH": 11, "BSTAR": 0.00025187037, "MEAN_MOTION_DOT": 0.00013862, "MEAN_MOTION_DDOT": 0}, "tle": {"line1": "1 65304U 25186A   25360.21233527  .00013862  00000+0  25187-3 0  9996", "line2": "2 65304  51.6319  75.7553 0003236 303.1667  56.9011 15.49833819   112"}}, "geometry": {"type": "Point", "coordinates": [-127.68758534791274, 24.412066165631664]}}, {"type": "Feature", "properties": {"norad_id": 65586, "name": "PROGRESS-MS 32", "group": "stations", "lat": 24.412065740105486, "lon": -127.68758491271433, "alt_km": 416.2897869072558, "timestamp": "2025-12-26T16:33:54.365109+00:00", "meta": {"OBJECT_NAME": "PROGRESS-MS 32", "OBJECT_ID": "2025-204A", "EPOCH": "2025-12-26T05:05:45.767328", "MEAN_MOTION": 15.49833819, "ECCENTRICITY": 0.00032367, "INCLINATION": 51.6319, "RA_OF_ASC_NODE": 75.7553, "ARG_OF_PERICENTER": 303.1667, "MEAN_ANOMALY": 56.9011, "EPHEMERIS_TYPE": 0, "CLASSIFICATION_TYPE": "U", "NORAD_CAT_ID": 65586, "ELEMENT_SET_NO": 999, "REV_AT_EPOCH": 27, "BSTAR": 0.00025187037, "MEAN_MOTION_DOT": 0.00013862, "MEAN_MOTION_DDOT": 0}, "tle": {"line1": "1 65586U 25204A   25360.21233527  .00013862  00000+0  25187-3 0  9999", "line2": "2 65586  51.6319  75.7553 0003236 303.1667  56.9011 15.49833819   271"}}, "geometry": {"type": "Point", "coordinates": [-127.68758491271433, 24.412065740105486]}}, {"type": "Feature", "properties": {"norad_id": 65616, "name": "CYGNUS NG-23", "group": "stations", "lat": 24.412065267299546, "lon": -127.68758442916143, "alt_km": 416.2897869737699, "timestamp": "2025-12-26T16:33:54.365119+00:00", "meta": {"OBJECT_NAME": "CYGNUS NG-23", "OBJECT_ID": "2025-208A", "EPOCH": "2025-12-26T05:05:45.767328", "MEAN_MOTION": 15.49833819, "ECCENTRICITY": 0.00032367, "INCLINATION": 51.6319, "RA_OF_ASC_NODE": 75.7553, "ARG_OF_PERICENTER": 303.1667, "MEAN_ANOMALY": 56.9011, "EPHEMERIS_TYPE": 0, "CLASSIFICATION_TYPE": "U", "NORAD_CAT_ID": 65616, "ELEMENT_SET_NO": 999, "REV_AT_EPOCH": 22, "BSTAR": 0.00025187037, "MEAN_MOTION_DOT": 0.00013862, "MEAN_MOTION_DDOT": 0}, "tle": {"line1": "1 65616U 25208A   25360.21233527  .00013862  00000+0  25187-3 0  9997", "line2": "2 65616  51.6319  75.7553 0003236 303.1667  56.9011 15.49833819   220"}}, "geometry": {"type": "Point", "coordinates": [-127.68758442916143, 24.412065267299546]}}, {"type": "Feature", "properties": {"norad_id": 65729, "name": "DRAGONFLY", "group": "stations", "lat": -49.560698450461246, "lon": -4.339835552951463, "alt_km": 342.22744198473447, "timestamp": "2025-12-26T16:33:54.365129+00:00", "meta": {"OBJECT_NAME": "DRAGONFLY", "OBJECT_ID": "1998-067XH", "EPOCH": "2025-12-25T10:27:45.650592", "MEAN_MOTION": 15.76365427, "ECCENTRICITY": 0.0008108, "INCLINATION": 51.6246, "RA_OF_ASC_NODE": 70.5435, "ARG_OF_PERICENTER": 352.3473, "MEAN_ANOMALY": 7.7402, "EPHEMERIS_TYPE": 0, "CLASSIFICATION_TYPE": "U", "NORAD_CAT_ID": 65729, "ELEMENT_SET_NO": 999, "REV_AT_EPOCH": 1516, "BSTAR": 0.0012462, "MEAN_MOTION_DOT": 0.00205682, "MEAN_MOTION_DDOT": 0}, "tle": {"line1": "1 65729U 98067XH  25359.43594503  .00205682  00000+0  12462-2 0  9995", "line2": "2 65729  51.6246  70.5435 0008108 352.3473   7.7402 15.76365427 15162"}}, "geometry": {"type": "Point", "coordinates": [-4.339835552951463, -49.560698450461246]}}, {"type": "Feature", "properties": {"norad_id": 65731, "name": "1998-067XK", "group": "stations", "lat": -40.133683977441954, "lon": 24.400067804990954, "alt_km": 364.49299535889895, "timestamp": "2025-12-26T16:33:54.365139+00:00", "meta": {"OBJECT_NAME": "1998-067XK", "OBJECT_ID": "1998-067XK", "EPOCH": "2025-12-26T04:33:59.551776", "MEAN_MOTION": 15.68357423, "ECCENTRICITY": 0.00050322, "INCLINATION": 51.6285, "RA_OF_ASC_NODE": 68.8624, "ARG_OF_PERICENTER": 329.4529, "MEAN_ANOMALY": 30.6174, "EPHEMERIS_TYPE": 0, "CLASSIFICATION_TYPE": "U", "NORAD_CAT_ID": 65731, "ELEMENT_SET_NO": 999, "REV_AT_EPOCH": 1525, "BSTAR": 0.0008671842, "MEAN_MOTION_DOT": 0.001002, "MEAN_MOTION_DDOT": 0}, "tle": {"line1": "1 65731U 98067XK  25360.19027259  .00100200  00000+0  86718-3 0  9998", "line2": "2 65731  51.6285  68.8624 0005032 329.4529  30.6174 15.68357423 15257"}}, "geometry": {"type": "Point", "coordinates": [24.400067804990954, -40.133683977441954]}}, {"type": "Feature", "properties": {"norad_id": 65732, "name": "RSP-03", "group": "stations", "lat": 51.289478316183185, "lon": 146.65401505367953, "alt_km": 346.3835970094833, "timestamp": "2025-12-26T16:33:54.365148+00:00", "meta": {"OBJECT_NAME": "RSP-03", "OBJECT_ID": "1998-067XL", "EPOCH": "2025-12-26T07:03:15.491520", "MEAN_MOTION": 15.72184248, "ECCENTRICITY": 0.00060645, "INCLINATION": 51.6258, "RA_OF_ASC_NODE": 67.2883, "ARG_OF_PERICENTER": 337.3449, "MEAN_ANOMALY": 22.7281, "EPHEMERIS_TYPE": 0, "CLASSIFICATION_TYPE": "U", "NORAD_CAT_ID": 65732, "ELEMENT_SET_NO": 999, "REV_AT_EPOCH": 1529, "BSTAR": 0.0010358178, "MEAN_MOTION_DOT": 0.00141327, "MEAN_MOTION_DDOT": 0}, "tle": {"line1": "1 65732U 98067XL  25360.29392930  .00141327  00000+0  10358-2 0  9992", "line2": "2 65732  51.6258  67.2883 0006064 337.3449  22.7281 15.72184248 15296"}}, "geometry": {"type": "Point", "coordinates": [146.65401505367953, 51.289478316183185]}}, {"type": "Feature", "properties": {"norad_id": 65733, "name": "GHS-01", "group": "stations", "lat": 16.465155892626683, "lon": 76.67417879828938, "alt_km": 319.05598639671825, "timestamp": "2025-12-26T16:33:54.365160+00:00", "meta": {"OBJECT_NAME": "GHS-01", "OBJECT_ID": "1998-067XM", "EPOCH": "2025-12-25T11:39:15.872832", "MEAN_MOTION": 15.80737686, "ECCENTRICITY": 0.0009282, "INCLINATION": 51.6282, "RA_OF_ASC_NODE": 69.3856, "ARG_OF_PERICENTER": 357.4612, "MEAN_ANOMALY": 2.6342, "EPHEMERIS_TYPE": 0, "CLASSIFICATION_TYPE": "U", "NORAD_CAT_ID": 65733, "ELEMENT_SET_NO": 999, "REV_AT_EPOCH": 1519, "BSTAR": 0.0014102, "MEAN_MOTION_DOT": 0.0028642, "MEAN_MOTION_DDOT": 0}, "tle": {"line1": "1 65733U 98067XM  25359.48560038  .00286420  00000+0  14102-2 0  9993", "line2": "2 65733  51.6282  69.3856 0009282 357.4612   2.6342 15.80737686 15190"}}, "geometry": {"type": "Point", "coordinates": [76.67417879828938, 16.465155892626683]}}, {"type": "Feature", "properties": {"norad_id": 65941, "name": "YOTSUBA-KULOVER", "group": "stations", "lat": 51.60566444176558, "lon": 158.93885029683588, "alt_km": 376.5040674537822, "timestamp": "2025-12-26T16:33:54.365170+00:00", "meta": {"OBJECT_NAME": "YOTSUBA-KULOVER", "OBJECT_ID": "1998-067XN", "EPOCH": "2025-12-26T06:58:00.982560", "MEAN_MOTION": 15.61282637, "ECCENTRICITY": 0.00025945, "INCLINATION": 51.6287, "RA_OF_ASC_NODE": 71.7809, "ARG_OF_PERICENTER": 4.0167, "MEAN_ANOMALY": 356.0846, "EPHEMERIS_TYPE": 0, "CLASSIFICATION_TYPE": "U", "NORAD_CAT_ID": 65941, "ELEMENT_SET_NO": 999, "REV_AT_EPOCH": 1197, "BSTAR": 0.00078259274, "MEAN_MOTION_DOT": 0.00067818, "MEAN_MOTION_DDOT": 0}, "tle": {"line1": "1 65941U 98067XN  25360.29028915  .00067818  00000+0  78259-3 0  9990", "line2": "2 65941  51.6287  71.7809 0002594   4.0167 356.0846 15.61282637 11977"}}, "geometry": {"type": "Point", "coordinates": [158.93885029683588, 51.60566444176558]}}, {"type": "Feature", "properties": {"norad_id": 65942, "name": "BOTAN", "group": "stations", "lat": -49.69141357900105, "lon": -42.259137140900194, "alt_km": 375.34044558247115, "timestamp": "2025-12-26T16:33:54.365180+00:00", "meta": {"OBJECT_NAME": "BOTAN", "OBJECT_ID": "1998-067XP", "EPOCH": "2025-12-26T06:16:59.186496", "MEAN_MOTION": 15.65764199, "ECCENTRICITY": 0.00035647, "INCLINATION": 51.6275, "RA_OF_ASC_NODE": 70.8385, "ARG_OF_PERICENTER": 345.774, "MEAN_ANOMALY": 14.3155, "EPHEMERIS_TYPE": 0, "CLASSIFICATION_TYPE": "U", "NORAD_CAT_ID": 65942, "ELEMENT_SET_NO": 999, "REV_AT_EPOCH": 1198, "BSTAR": 0.0010674259, "MEAN_MOTION_DOT": 0.00111235, "MEAN_MOTION_DDOT": 0}, "tle": {"line1": "1 65942U 98067XP  25360.26179614  .00111235  00000+0  10674-2 0  9990", "line2": "2 65942  51.6275  70.8385 0003564 345.7740  14.3155 15.65764199 11984"}}, "geometry": {"type": "Point", "coordinates": [-42.259137140900194, -49.69141357900105]}}, {"type": "Feature", "properties": {"norad_id": 65943, "name": "E-KAGAKU-1", "group": "stations", "lat": 51.59983993262078, "lon": 158.15967665327224, "alt_km": 377.1066904734125, "timestamp": "2025-12-26T16:33:54.365191+00:00", "meta": {"OBJECT_NAME": "E-KAGAKU-1", "OBJECT_ID": "1998-067XQ", "EPOCH": "2025-12-25T10:59:52.984032", "MEAN_MOTION": 15.61171734, "ECCENTRICITY": 0.00014574, "INCLINATION": 51.631, "RA_OF_ASC_NODE": 75.9814, "ARG_OF_PERICENTER": 327.9549, "MEAN_ANOMALY": 32.1355, "EPHEMERIS_TYPE": 0, "CLASSIFICATION_TYPE": "U", "NORAD_CAT_ID": 65943, "ELEMENT_SET_NO": 999, "REV_AT_EPOCH": 1184, "BSTAR": 0.00081459816, "MEAN_MOTION_DOT": 0.00070327, "MEAN_MOTION_DDOT": 0}, "tle": {"line1": "1 65943U 98067XQ  25359.45825213  .00070327  00000+0  81460-3 0  9991", "line2": "2 65943  51.6310  75.9814 0001457 327.9549  32.1355 15.61171734 11844"}}, "geometry": {"type": "Point", "coordinates": [158.15967665327224, 51.59983993262078]}}]}